SENTINEL-6              
1 46984U 20086A   24151.58646979 -.00000053  00000+0  36222-4 0  9991
2 46984  66.0417 247.8252 0007878 270.6988  89.3124 12.80928251164575
